QIANFAN-92              
1 66034U 25233B   25306.34023472  .00000700  00000+0  28696-3 0  9995
2 66034  88.9946  66.6815 0015791 161.1970 198.9810 14.25994081  2286
QIANFAN-93              
1 66035U 25233C   25306.33927378  .00000710  00000+0  29068-3 0  9998
2 66035  88.9947  66.6815 0015105 160.5132 199.6642 14.26077641  2286
QIANFAN-94              
1 66036U 25233D   25306.47937896  .00000710  00000+0  29061-3 0  9993
2 66036  88.9948  66.6653 0015198 159.7827 200.3972 14.26103032  2304
QIANFAN-95              
1 66037U 25233E   25306.47912309  .00000708  00000+0  28966-3 0  9996
2 66037  88.9948  66.6653 0015146 160.1927 199.9857 14.26148222  2300
QIANFAN-96              
1 66038U 25233F   25306.47887086  .00000689  00000+0  28175-3 0  9990
2 66038  88.9948  66.6652 0015777 162.1684 198.0066 14.26152128  2304
QIANFAN-97              
1 66039U 25233G   25306.47878561  .00000692  00000+0  28299-3 0  9990
2 66039  88.9948  66.6652 0015347 161.5887 198.5865 14.26158040  2307
QIANFAN-98              
1 66040U 25233H   25306.47857273  .00000692  00000+0  28262-3 0  9999
2 66040  88.9948  66.6652 0014998 160.2496 199.9281 14.26179524  2309
QIANFAN-99              
1 66041U 25233J   25306.47846794  .00000690  00000+0  28205-3 0  9991
2 66041  88.9947  66.6651 0015146 159.3652 200.8156 14.26194970  2302
QIANFAN-100             
1 66042U 25233K   25306.47841977  .00000690  00000+0  28188-3 0  9990
2 66042  88.9948  66.6652 0015583 161.0955 199.0820 14.26210627  2301
QIANFAN-101             
1 66043U 25233L   25306.47669299  .00000522  00000+0  20991-3 0  9994
2 66043  88.9948  66.6649 0015514 159.3656 200.8167 14.26632831  2300
QIANFAN-102             
1 66044U 25233M   25306.47832132  .00000708  00000+0  28934-3 0  9994
2 66044  88.9947  66.6651 0015949 161.2221 198.9564 14.26214672  2302
QIANFAN-103             
1 66045U 25233N   25306.47807671  .00000709  00000+0  28938-3 0  9990
2 66045  88.9948  66.6652 0015339 159.9703 200.2096 14.26243894  2302
